[{"OBJECT_NAME":"OBJECT AL","OBJECT_ID":"2023-085AL","EPOCH":"2026-03-09T22:26:04.970400","MEAN_MOTION":15.31857284,"ECCENTRICITY":0.000802,"INCLINATION":97.4839,"RA_OF_ASC_NODE":180.0127,"ARG_OF_PERICENTER":78.7242,"MEAN_ANOMALY":281.49,"EPHEMERIS_TYPE":0,"CLASSIFICATION_TYPE":"U","NORAD_CAT_ID":57038,"ELEMENT_SET_NO":999,"REV_AT_EPOCH":15154,"BSTAR":0.0006591637,"MEAN_MOTION_DOT":0.00020246,"MEAN_MOTION_DDOT":0},{"OBJECT_NAME":"STARLINK-36256","OBJECT_ID":"2025-299B","EPOCH":"2026-03-09T17:49:57.137952","MEAN_MOTION":15.34100812,"ECCENTRICITY":0.00015407,"INCLINATION":42.9993,"RA_OF_ASC_NODE":168.7662,"ARG_OF_PERICENTER":312.3927,"MEAN_ANOMALY":47.6797,"EPHEMERIS_TYPE":0,"CLASSIFICATION_TYPE":"U","NORAD_CAT_ID":67103,"ELEMENT_SET_NO":999,"REV_AT_EPOCH":1312,"BSTAR":-0.0091362377,"MEAN_MOTION_DOT":-0.00296455,"MEAN_MOTION_DDOT":0}]
